ONEWEB-0645             
1 55809U 23029P   25127.77298974 -.00000011  00000+0 -60138-4 0  9998
2 55809  87.9260  25.5810 0001641  71.0065 289.1245 13.19725716106126
ONEWEB-0646             
1 55810U 23029Q   25127.95462737  .00000081  00000+0  17024-3 0  9990
2 55810  87.9260  25.5389 0001637  85.3546 274.7774 13.19727286105441
ONEWEB-0648             
1 55811U 23029R   25127.93740616 -.00000069  00000+0 -22015-3 0  9998
2 55811  87.9077  10.3220 0000885  66.0417 294.0805 13.14501087106154
ONEWEB-0649             
1 55812U 23029S   25127.76587034  .00000012  00000+0 -27530-5 0  9999
2 55812  87.9257  25.5663 0001368  75.1560 284.9724 13.19727866106148
ONEWEB-0650             
1 55813U 23029T   25127.76112879 -.00000287  00000+0 -74825-3 0  9993
2 55813  87.9258  25.5759 0001663  81.6183 278.5138 13.19726060106117
ONEWEB-0652             
1 55814U 23029U   25127.69003149 -.00000108  00000+0 -32442-3 0  9996
2 55814  87.9079  10.3816 0001996  81.7980 278.3376 13.14502962106097
ONEWEB-0653             
1 55815U 23029V   25127.75029963  .00000125  00000+0  30315-3 0  9990
2 55815  87.9080  10.3578 0001948  74.9372 285.1973 13.14501433106137
ONEWEB-0654             
1 55816U 23029W   25127.89777517  .00000216  00000+0  54769-3 0  9991
2 55816  87.9079  10.3301 0002217  78.7935 281.3444 13.14501617106862
